OBJECT_NAME,OBJECT_ID,EPOCH,MEAN_MOTION,ECCENTRICITY,INCLINATION,RA_OF_ASC_NODE,ARG_OF_PERICENTER,MEAN_ANOMALY,EPHEMERIS_TYPE,CLASSIFICATION_TYPE,NORAD_CAT_ID,ELEMENT_SET_NO,REV_AT_EPOCH,BSTAR,MEAN_MOTION_DOT,MEAN_MOTION_DDOT
STARLINK-32762,2025-014P,2025-01-25T22:00:01.999584,15.84355332,.0001779,43.0090,310.4322,258.0744,63.0526,0,U,62748,999,179,-.5245E-2,-.1089574E-1,0
STARLINK-32761,2025-014Q,2025-01-25T22:00:01.999584,15.84456139,.0001343,43.0089,310.4298,263.0488,59.1491,0,U,62749,999,179,-.52466E-2,-.1094335E-1,0
STARLINK-32763,2025-014R,2025-01-25T22:00:01.999584,15.84572414,.0001755,43.0091,310.4266,265.5695,57.8473,0,U,62750,999,179,-.52918E-2,-.1128534E-1,0
STARLINK-32759,2025-014S,2025-01-25T22:00:01.999584,15.84685808,.0001669,43.0091,310.4236,256.4472,68.1465,0,U,62751,999,179,-.5309E-2,-.1137386E-1,0
STARLINK-32756,2025-014T,2025-01-25T22:00:01.999584,15.84811024,.0001663,43.0091,310.4204,263.7917,62.0950,0,U,62752,999,179,-.53633E-2,-.1154082E-1,0
STARLINK-32751,2025-014U,2025-01-25T22:00:01.999584,15.84900900,.0001845,43.0091,310.4179,262.9529,63.9204,0,U,62753,999,186,-.5346E-2,-.1155368E-1,0
STARLINK-32740,2025-014V,2025-01-25T22:00:01.999584,15.85026934,.0001644,43.0092,310.4147,257.1569,71.0029,0,U,62754,999,186,-.5381E-2,-.1168425E-1,0
STARLINK-32745,2025-014W,2025-01-25T22:00:01.999584,15.85126421,.0001837,43.0093,310.4123,263.8242,65.3489,0,U,62755,999,179,-.54155E-2,-.1180337E-1,0
USA 485,2025-014X,2025-01-25T16:08:48.974784,15.87001538,.0002755,43.0107,311.9523,275.1108,84.9451,0,U,62756,999,70,.46435E-3,.125442E-2,0
USA 486,2025-014Y,2025-01-25T19:09:57.938400,15.86467296,.000207,43.0097,311.1736,238.1317,121.9356,0,U,62757,999,72,.51717E-3,.136304E-2,0
STARLINK-33596,2025-015A,2025-01-25T22:00:01.999584,16.01013782,.0000495,53.1608,65.8789,48.1738,151.8423,0,U,62758,999,185,-.82537E-3,-.463619E-2,.8653E-4
STARLINK-33589,2025-015B,2025-01-25T22:00:01.999584,15.95261958,.0000666,53.1618,65.9655,64.4723,93.9853,0,U,62759,999,185,-.17704E-2,-.717803E-2,.17419E-3
STARLINK-33575,2025-015C,2025-01-25T22:00:01.999584,15.95351530,.0000705,53.1617,65.9637,57.3859,101.9504,0,U,62760,999,185,-.1771E-2,-.721499E-2,.17595E-3
STARLINK-33584,2025-015D,2025-01-25T22:00:01.999584,15.95467497,.0000881,53.1618,65.9615,45.6172,114.7108,0,U,62761,999,191,-.17912E-2,-.734215E-2,.18173E-3
STARLINK-33577,2025-015E,2025-01-25T22:00:01.999584,15.95586768,.0000677,53.1619,65.9595,55.1783,106.1837,0,U,62762,999,191,-.17801E-2,-.734381E-2,.18202E-3
STARLINK-33597,2025-015F,2025-01-25T22:00:01.999584,15.95704422,.0000409,53.1618,65.9575,95.5958,66.7943,0,U,62763,999,191,-.17695E-2,-.734668E-2,.18237E-3
STARLINK-33579,2025-015G,2025-01-25T22:00:01.999584,15.95824600,.000057,53.1619,65.9554,77.8533,85.5802,0,U,62764,999,191,-.17637E-2,-.737041E-2,.18364E-3
STARLINK-33592,2025-015H,2025-01-25T22:00:01.999584,15.95927345,.0000763,53.1619,65.9534,63.2773,101.0936,0,U,62765,999,178,-.17673E-2,-.742644E-2,.18634E-3
STARLINK-33595,2025-015J,2025-01-25T22:00:01.999584,15.96062548,.000041,53.1619,65.9510,60.5462,104.9307,0,U,62766,999,191,-.17677E-2,-.748235E-2,.18911E-3
STARLINK-33572,2025-015K,2025-01-25T22:00:01.999584,15.96174134,.0000777,53.1620,65.9490,62.9820,103.5069,0,U,62767,999,185,-.17562E-2,-.747927E-2,.18919E-3
STARLINK-33601,2025-015L,2025-01-25T22:00:01.999584,15.96263402,.0000641,53.1619,65.9471,59.0345,108.2907,0,U,62768,999,191,-.17623E-2,-.754129E-2,.19218E-3
STARLINK-33569,2025-015M,2025-01-25T22:00:01.999584,15.96378694,.0000733,53.1619,65.9451,50.3326,117.9910,0,U,62769,999,191,-.17711E-2,-.762615E-2,.1963E-3
STARLINK-33594,2025-015N,2025-01-25T22:00:01.999584,15.96601727,.0000655,53.1619,65.9411,50.5940,119.7109,0,U,62770,999,191,-.17652E-2,-.769355E-2,.19987E-3
STARLINK-33598,2025-015P,2025-01-25T22:00:01.999584,15.96479057,.0000792,53.1620,65.9432,62.9730,106.2997,0,U,62771,999,191,-.17608E-2,-.762364E-2,.19638E-3
STARLINK-33600,2025-015Q,2025-01-25T22:00:01.999584,15.96720576,.0000509,53.1621,65.9388,62.0587,109.2780,0,U,62772,999,191,-.17535E-2,-.769253E-2,.20007E-3
STARLINK-33567,2025-015R,2025-01-25T22:00:01.999584,15.96833345,.0000712,53.1622,65.9371,47.4830,124.8484,0,U,62773,999,191,-.17562E-2,-.775186E-2,.20308E-3
STARLINK-33574,2025-015S,2025-01-25T22:00:01.999584,15.96963499,.0000612,53.1620,65.9344,64.2548,109.1725,0,U,62774,999,148,-.17408E-2,-.773922E-2,.20276E-3
STARLINK-33576,2025-015T,2025-01-25T22:00:01.999584,15.97062334,.0000669,53.1621,65.9325,67.5311,106.8118,0,U,62775,999,185,-.1738E-2,-.776876E-2,.20436E-3
STARLINK-33570,2025-015U,2025-01-25T22:00:01.999584,15.97183902,.0000648,53.1623,65.9306,54.4895,120.8780,0,U,62776,999,185,-.17433E-2,-.784423E-2,.20819E-3
STARLINK-33591,2025-015V,2025-01-25T22:00:01.999584,15.97288040,.0000559,53.1623,65.9285,75.7943,100.5241,0,U,62777,999,191,-.17298E-2,-.782854E-2,.20767E-3
