STARLINK-32762          
1 62748U 25014P   25025.91668981 -.01089574  00000+0 -52450-2 0  9994
2 62748  43.0090 310.4322 0001779 258.0744  63.0526 15.84355332  1792
STARLINK-32761          
1 62749U 25014Q   25025.91668981 -.01094335  00000+0 -52466-2 0  9993
2 62749  43.0089 310.4298 0001343 263.0488  59.1491 15.84456139  1795
STARLINK-32763          
1 62750U 25014R   25025.91668981 -.01128534  00000+0 -52918-2 0  9996
2 62750  43.0091 310.4266 0001755 265.5695  57.8473 15.84572414  1799
STARLINK-32759          
1 62751U 25014S   25025.91668981 -.01137386  00000+0 -53090-2 0  9994
2 62751  43.0091 310.4236 0001669 256.4472  68.1465 15.84685808  1791
STARLINK-32756          
1 62752U 25014T   25025.91668981 -.01154082  00000+0 -53633-2 0  9990
2 62752  43.0091 310.4204 0001663 263.7917  62.0950 15.84811024  1799
STARLINK-32751          
1 62753U 25014U   25025.91668981 -.01155368  00000+0 -53460-2 0  9997
2 62753  43.0091 310.4179 0001845 262.9529  63.9204 15.84900900  1865
STARLINK-32740          
1 62754U 25014V   25025.91668981 -.01168425  00000+0 -53810-2 0  9995
2 62754  43.0092 310.4147 0001644 257.1569  71.0029 15.85026934  1861
STARLINK-32745          
1 62755U 25014W   25025.91668981 -.01180337  00000+0 -54155-2 0  9995
2 62755  43.0093 310.4123 0001837 263.8242  65.3489 15.85126421  1793
USA 485                 
1 62756U 25014X   25025.67278906  .00125442  00000+0  46435-3 0  9999
2 62756  43.0107 311.9523 0002755 275.1108  84.9451 15.87001538   706
USA 486                 
1 62757U 25014Y   25025.79858725  .00136304  00000+0  51717-3 0  9994
2 62757  43.0097 311.1736 0002070 238.1317 121.9356 15.86467296   728
STARLINK-33596          
1 62758U 25015A   25025.91668981 -.00463619  86530-4 -82537-3 0  9998
2 62758  53.1608  65.8789 0000495  48.1738 151.8423 16.01013782  1852
STARLINK-33589          
1 62759U 25015B   25025.91668981 -.00717803  17419-3 -17704-2 0  9998
2 62759  53.1618  65.9655 0000666  64.4723  93.9853 15.95261958  1857
STARLINK-33575          
1 62760U 25015C   25025.91668981 -.00721499  17595-3 -17710-2 0  9998
2 62760  53.1617  65.9637 0000705  57.3859 101.9504 15.95351530  1852
STARLINK-33584          
1 62761U 25015D   25025.91668981 -.00734215  18173-3 -17912-2 0  9996
2 62761  53.1618  65.9615 0000881  45.6172 114.7108 15.95467497  1912
STARLINK-33577          
1 62762U 25015E   25025.91668981 -.00734381  18202-3 -17801-2 0  9991
2 62762  53.1619  65.9595 0000677  55.1783 106.1837 15.95586768  1915
STARLINK-33597          
1 62763U 25015F   25025.91668981 -.00734668  18237-3 -17695-2 0  9999
2 62763  53.1618  65.9575 0000409  95.5958  66.7943 15.95704422  1916
STARLINK-33579          
1 62764U 25015G   25025.91668981 -.00737041  18364-3 -17637-2 0  9995
2 62764  53.1619  65.9554 0000570  77.8533  85.5802 15.95824600  1910
STARLINK-33592          
1 62765U 25015H   25025.91668981 -.00742644  18634-3 -17673-2 0  9991
2 62765  53.1619  65.9534 0000763  63.2773 101.0936 15.95927345  1785
STARLINK-33595          
1 62766U 25015J   25025.91668981 -.00748235  18911-3 -17677-2 0  9996
2 62766  53.1619  65.9510 0000410  60.5462 104.9307 15.96062548  1919
STARLINK-33572          
1 62767U 25015K   25025.91668981 -.00747927  18919-3 -17562-2 0  9995
2 62767  53.1620  65.9490 0000777  62.9820 103.5069 15.96174134  1857
STARLINK-33601          
1 62768U 25015L   25025.91668981 -.00754129  19218-3 -17623-2 0  9999
2 62768  53.1619  65.9471 0000641  59.0345 108.2907 15.96263402  1911
STARLINK-33569          
1 62769U 25015M   25025.91668981 -.00762615  19630-3 -17711-2 0  9995
2 62769  53.1619  65.9451 0000733  50.3326 117.9910 15.96378694  1916
STARLINK-33594          
1 62770U 25015N   25025.91668981 -.00769355  19987-3 -17652-2 0  9994
2 62770  53.1619  65.9411 0000655  50.5940 119.7109 15.96601727  1917
STARLINK-33598          
1 62771U 25015P   25025.91668981 -.00762364  19638-3 -17608-2 0  9992
2 62771  53.1620  65.9432 0000792  62.9730 106.2997 15.96479057  1914
STARLINK-33600          
1 62772U 25015Q   25025.91668981 -.00769253  20007-3 -17535-2 0  9998
2 62772  53.1621  65.9388 0000509  62.0587 109.2780 15.96720576  1911
STARLINK-33567          
1 62773U 25015R   25025.91668981 -.00775186  20308-3 -17562-2 0  9995
2 62773  53.1622  65.9371 0000712  47.4830 124.8484 15.96833345  1912
STARLINK-33574          
1 62774U 25015S   25025.91668981 -.00773922  20276-3 -17408-2 0  9995
2 62774  53.1620  65.9344 0000612  64.2548 109.1725 15.96963499  1483
STARLINK-33576          
1 62775U 25015T   25025.91668981 -.00776876  20436-3 -17380-2 0  9994
2 62775  53.1621  65.9325 0000669  67.5311 106.8118 15.97062334  1850
STARLINK-33570          
1 62776U 25015U   25025.91668981 -.00784423  20819-3 -17433-2 0  9996
2 62776  53.1623  65.9306 0000648  54.4895 120.8780 15.97183902  1857
STARLINK-33591          
1 62777U 25015V   25025.91668981 -.00782854  20767-3 -17298-2 0  9994
2 62777  53.1623  65.9285 0000559  75.7943 100.5241 15.97288040  1918
